[{"OBJECT_NAME":"STARLINK-4619","OBJECT_ID":"2022-141AL","EPOCH":"2026-03-09T22:46:21.699264","MEAN_MOTION":15.08811049,"ECCENTRICITY":0.00016033,"INCLINATION":53.219,"RA_OF_ASC_NODE":353.1952,"ARG_OF_PERICENTER":103.8378,"MEAN_ANOMALY":256.2792,"EPHEMERIS_TYPE":0,"CLASSIFICATION_TYPE":"U","NORAD_CAT_ID":54191,"ELEMENT_SET_NO":999,"REV_AT_EPOCH":18603,"BSTAR":0.00020399921,"MEAN_MOTION_DOT":2.958e-5,"MEAN_MOTION_DDOT":0},{"OBJECT_NAME":"POSAT-2","OBJECT_ID":"2025-009DR","EPOCH":"2026-03-09T23:15:20.314368","MEAN_MOTION":15.10404492,"ECCENTRICITY":0.00077103,"INCLINATION":97.4906,"RA_OF_ASC_NODE":146.0095,"ARG_OF_PERICENTER":126.4226,"MEAN_ANOMALY":233.7715,"EPHEMERIS_TYPE":0,"CLASSIFICATION_TYPE":"U","NORAD_CAT_ID":63488,"ELEMENT_SET_NO":999,"REV_AT_EPOCH":5165,"BSTAR":0.0010942248,"MEAN_MOTION_DOT":0.00017957,"MEAN_MOTION_DDOT":0}]
